{"type": "FeatureCollection", "features": [ {"type": "Feature", "properties": {"norad_id": 37528, "name": "COSMOS 2251 DEB", "group": "cosmos-2251-debris", "lat": -62.35903798344028, "lon": -28.24609087484017, "alt_km": 716.5677280893051, "timestamp": "2025-12-14T14:39:29.766921+00:00", "meta": {"OBJECT_NAME": "COSMOS 2251 DEB", "OBJECT_ID": "1993-036BNH", "EPOCH": "2025-12-13T16:00:10.961856", "MEAN_MOTION": 14.50525422, "ECCENTRICITY": 0.00211496, "INCLINATION": 74.0364, "RA_OF_ASC_NODE": 120.3942, "ARG_OF_PERICENTER": 268.4409, "MEAN_ANOMALY": 91.4329, "EPHEMERIS_TYPE": 0, "CLASSIFICATION_TYPE": "U", "NORAD_CAT_ID": 37528, "ELEMENT_SET_NO": 999, "REV_AT_EPOCH": 85944, "BSTAR": 0.00068406361, "MEAN_MOTION_DOT": 2.659e-05, "MEAN_MOTION_DDOT": 0}, "tle": {"line1": "1 37528U 93036BNH 25347.66679354  .00002659  00000+0  68406-3 0  9991", "line2": "2 37528  74.0364 120.3942 0021149 268.4409  91.4329 14.50525422859440"}}, "geometry": {"type": "Point", "coordinates": [-28.24609087484017, -62.35903798344028]}}, {"type": "Feature", "properties": {"norad_id": 37530, "name": "COSMOS 2251 DEB", "group": "cosmos-2251-debris", "lat": 45.82486650641047, "lon": -12.648485217947789, "alt_km": 754.6730586109179, "timestamp": "2025-12-14T14:39:29.766930+00:00", "meta": {"OBJECT_NAME": "COSMOS 2251 DEB", "OBJECT_ID": "1993-036BNK", "EPOCH": "2025-12-13T05:02:01.167072", "MEAN_MOTION": 14.34504437, "ECCENTRICITY": 0.00258213, "INCLINATION": 74.0355, "RA_OF_ASC_NODE": 332.7814, "ARG_OF_PERICENTER": 34.4483, "MEAN_ANOMALY": 341.4849, "EPHEMERIS_TYPE": 0, "CLASSIFICATION_TYPE": "U", "NORAD_CAT_ID": 37530, "ELEMENT_SET_NO": 999, "REV_AT_EPOCH": 85239, "BSTAR": 0.00034742606, "MEAN_MOTION_DOT": 9.57e-06, "MEAN_MOTION_DDOT": 0}, "tle": {"line1": "1 37530U 93036BNK 25347.20973573  .00000957  00000+0  34743-3 0  9990", "line2": "2 37530  74.0355 332.7814 0025821  34.4483 341.4849 14.34504437852391"}}, "geometry": {"type": "Point", "coordinates": [-12.648485217947789, 45.82486650641047]}}, {"type": "Feature", "properties": {"norad_id": 37532, "name": "COSMOS 2251 DEB", "group": "cosmos-2251-debris", "lat": -57.65273703042315, "lon": 59.09838761212028, "alt_km": 753.5703263555988, "timestamp": "2025-12-14T14:39:29.766940+00:00", "meta": {"OBJECT_NAME": "COSMOS 2251 DEB", "OBJECT_ID": "1993-036BNM", "EPOCH": "2025-12-12T21:39:46.748160", "MEAN_MOTION": 14.4240789, "ECCENTRICITY": 0.00159727, "INCLINATION": 74.0496, "RA_OF_ASC_NODE": 215.4183, "ARG_OF_PERICENTER": 316.0746, "MEAN_ANOMALY": 59.3162, "EPHEMERIS_TYPE": 0, "CLASSIFICATION_TYPE": "U", "NORAD_CAT_ID": 37532, "ELEMENT_SET_NO": 999, "REV_AT_EPOCH": 84918, "BSTAR": 0.00031840212, "MEAN_MOTION_DOT": 1.028e-05, "MEAN_MOTION_DDOT": 0}, "tle": {"line1": "1 37532U 93036BNM 25346.90262440  .00001028  00000+0  31840-3 0  9997", "line2": "2 37532  74.0496 215.4183 0015972 316.0746  59.3162 14.42407890849182"}}, "geometry": {"type": "Point", "coordinates": [59.09838761212028, -57.65273703042315]}}, {"type": "Feature", "properties": {"norad_id": 37533, "name": "COSMOS 2251 DEB", "group": "cosmos-2251-debris", "lat": 48.91444671995973, "lon": -10.612001338885426, "alt_km": 896.3976558775266, "timestamp": "2025-12-14T14:39:29.766950+00:00", "meta": {"OBJECT_NAME": "COSMOS 2251 DEB", "OBJECT_ID": "1993-036BNN", "EPOCH": "2025-12-10T19:55:37.417152", "MEAN_MOTION": 14.12152288, "ECCENTRICITY": 0.01580439, "INCLINATION": 74.0697, "RA_OF_ASC_NODE": 195.1706, "ARG_OF_PERICENTER": 252.2523, "MEAN_ANOMALY": 106.1316, "EPHEMERIS_TYPE": 0, "CLASSIFICATION_TYPE": "U", "NORAD_CAT_ID": 37533, "ELEMENT_SET_NO": 999, "REV_AT_EPOCH": 62894, "BSTAR": 0.0019185157, "MEAN_MOTION_DOT": 3.939e-05, "MEAN_MOTION_DDOT": 0}, "tle": {"line1": "1 37533U 93036BNN 25344.83029418  .00003939  00000+0  19185-2 0  9994", "line2": "2 37533  74.0697 195.1706 0158043 252.2523 106.1316 14.12152288628948"}}, "geometry": {"type": "Point", "coordinates": [-10.612001338885426, 48.91444671995973]}}, {"type": "Feature", "properties": {"norad_id": 37535, "name": "COSMOS 2251 DEB", "group": "cosmos-2251-debris", "lat": 3.2660237499118416, "lon": 70.8729783016832, "alt_km": 718.0660731024691, "timestamp": "2025-12-14T14:39:29.766960+00:00", "meta": {"OBJECT_NAME": "COSMOS 2251 DEB", "OBJECT_ID": "1993-036BNQ", "EPOCH": "2025-12-13T22:43:11.155296", "MEAN_MOTION": 14.58469432, "ECCENTRICITY": 0.00277364, "INCLINATION": 74.0241, "RA_OF_ASC_NODE": 71.2008, "ARG_OF_PERICENTER": 210.0608, "MEAN_ANOMALY": 267.8677, "EPHEMERIS_TYPE": 0, "CLASSIFICATION_TYPE": "U", "NORAD_CAT_ID": 37535, "ELEMENT_SET_NO": 999, "REV_AT_EPOCH": 85342, "BSTAR": 0.00091208757, "MEAN_MOTION_DOT": 4.229e-05, "MEAN_MOTION_DDOT": 0}, "tle": {"line1": "1 37535U 93036BNQ 25347.94665689  .00004229  00000+0  91209-3 0  9998", "line2": "2 37535  74.0241  71.2008 0027736 210.0608 267.8677 14.58469432853424"}}, "geometry": {"type": "Point", "coordinates": [70.8729783016832, 3.2660237499118416]}}, {"type": "Feature", "properties": {"norad_id": 37537, "name": "COSMOS 2251 DEB", "group": "cosmos-2251-debris", "lat": 50.313799731958355, "lon": -78.10771880333256, "alt_km": 726.679862855889, "timestamp": "2025-12-14T14:39:29.766970+00:00", "meta": {"OBJECT_NAME": "COSMOS 2251 DEB", "OBJECT_ID": "1993-036BNS", "EPOCH": "2025-12-11T11:15:11.696832", "MEAN_MOTION": 14.37489039, "ECCENTRICITY": 0.00502138, "INCLINATION": 74.0122, "RA_OF_ASC_NODE": 267.468, "ARG_OF_PERICENTER": 48.0201, "MEAN_ANOMALY": 312.5213, "EPHEMERIS_TYPE": 0, "CLASSIFICATION_TYPE": "U", "NORAD_CAT_ID": 37537, "ELEMENT_SET_NO": 999, "REV_AT_EPOCH": 85015, "BSTAR": 0.0003879169, "MEAN_MOTION_DOT": 1.152e-05, "MEAN_MOTION_DDOT": 0}, "tle": {"line1": "1 37537U 93036BNS 25345.46888538  .00001152  00000+0  38792-3 0  9995", "line2": "2 37537  74.0122 267.4680 0050213  48.0201 312.5213 14.37489039850156"}}, "geometry": {"type": "Point", "coordinates": [-78.10771880333256, 50.313799731958355]}}, {"type": "Feature", "properties": {"norad_id": 37546, "name": "COSMOS 2251 DEB", "group": "cosmos-2251-debris", "lat": 57.578216960575084, "lon": 121.12805450920112, "alt_km": 618.5227176573399, "timestamp": "2025-12-14T14:39:29.766980+00:00", "meta": {"OBJECT_NAME": "COSMOS 2251 DEB", "OBJECT_ID": "1993-036BPB", "EPOCH": "2025-12-13T15:40:44.550624", "MEAN_MOTION": 14.80580134, "ECCENTRICITY": 0.00056627, "INCLINATION": 74.0221, "RA_OF_ASC_NODE": 96.2019, "ARG_OF_PERICENTER": 105.6347, "MEAN_ANOMALY": 254.5455, "EPHEMERIS_TYPE": 0, "CLASSIFICATION_TYPE": "U", "NORAD_CAT_ID": 37546, "ELEMENT_SET_NO": 999, "REV_AT_EPOCH": 65901, "BSTAR": 0.0029558541, "MEAN_MOTION_DOT": 0.00022724, "MEAN_MOTION_DDOT": 0}, "tle": {"line1": "1 37546U 93036BPB 25347.65329341  .00022724  00000+0  29559-2 0  9998", "line2": "2 37546  74.0221  96.2019 0005662 105.6347 254.5455 14.80580134659010"}}, "geometry": {"type": "Point", "coordinates": [121.12805450920112, 57.578216960575084]}}, {"type": "Feature", "properties": {"norad_id": 37959, "name": "COSMOS 2251 DEB", "group": "cosmos-2251-debris", "lat": 68.84350049415771, "lon": -174.4280469353315, "alt_km": 693.051564946094, "timestamp": "2025-12-14T14:39:29.766990+00:00", "meta": {"OBJECT_NAME": "COSMOS 2251 DEB", "OBJECT_ID": "1993-036BPJ", "EPOCH": "2025-12-13T22:31:21.849312", "MEAN_MOTION": 14.58156953, "ECCENTRICITY": 0.00577594, "INCLINATION": 74.0112, "RA_OF_ASC_NODE": 54.6593, "ARG_OF_PERICENTER": 197.1517, "MEAN_ANOMALY": 339.7318, "EPHEMERIS_TYPE": 0, "CLASSIFICATION_TYPE": "U", "NORAD_CAT_ID": 37959, "ELEMENT_SET_NO": 999, "REV_AT_EPOCH": 80144, "BSTAR": 0.00082380797, "MEAN_MOTION_DOT": 3.857e-05, "MEAN_MOTION_DDOT": 0}, "tle": {"line1": "1 37959U 93036BPJ 25347.93844733  .00003857  00000+0  82381-3 0  9993", "line2": "2 37959  74.0112  54.6593 0057759 197.1517 339.7318 14.58156953801444"}}, "geometry": {"type": "Point", "coordinates": [-174.4280469353315, 68.84350049415771]}}, {"type": "Feature", "properties": {"norad_id": 37960, "name": "COSMOS 2251 DEB", "group": "cosmos-2251-debris", "lat": -12.613034594217858, "lon": 179.94593351034055, "alt_km": 1017.179856744734, "timestamp": "2025-12-14T14:39:29.766999+00:00", "meta": {"OBJECT_NAME": "COSMOS 2251 DEB", "OBJECT_ID": "1993-036BPK", "EPOCH": "2025-12-13T06:19:13.281024", "MEAN_MOTION": 14.0785868, "ECCENTRICITY": 0.02488023, "INCLINATION": 74.0565, "RA_OF_ASC_NODE": 185.9744, "ARG_OF_PERICENTER": 204.5251, "MEAN_ANOMALY": 154.3891, "EPHEMERIS_TYPE": 0, "CLASSIFICATION_TYPE": "U", "NORAD_CAT_ID": 37960, "ELEMENT_SET_NO": 999, "REV_AT_EPOCH": 77413, "BSTAR": 0.0011508414, "MEAN_MOTION_DOT": 2.566e-05, "MEAN_MOTION_DDOT": 0}, "tle": {"line1": "1 37960U 93036BPK 25347.26334816  .00002566  00000+0  11508-2 0  9995", "line2": "2 37960  74.0565 185.9744 0248802 204.5251 154.3891 14.07858680774135"}}, "geometry": {"type": "Point", "coordinates": [179.94593351034055, -12.613034594217858]}}, {"type": "Feature", "properties": {"norad_id": 37961, "name": "COSMOS 2251 DEB", "group": "cosmos-2251-debris", "lat": 11.934638358758539, "lon": -49.918563719257854, "alt_km": 680.6155890411528, "timestamp": "2025-12-14T14:39:29.767009+00:00", "meta": {"OBJECT_NAME": "COSMOS 2251 DEB", "OBJECT_ID": "1993-036BPL", "EPOCH": "2025-12-13T03:18:27.462240", "MEAN_MOTION": 14.57979799, "ECCENTRICITY": 0.00406759, "INCLINATION": 74.0407, "RA_OF_ASC_NODE": 136.3488, "ARG_OF_PERICENTER": 216.8805, "MEAN_ANOMALY": 142.9561, "EPHEMERIS_TYPE": 0, "CLASSIFICATION_TYPE": "U", "NORAD_CAT_ID": 37961, "ELEMENT_SET_NO": 999, "REV_AT_EPOCH": 80071, "BSTAR": 0.001729191, "MEAN_MOTION_DOT": 8.011e-05, "MEAN_MOTION_DDOT": 0}, "tle": {"line1": "1 37961U 93036BPL 25347.13781785  .00008011  00000+0  17292-2 0  9990", "line2": "2 37961  74.0407 136.3488 0040675 216.8805 142.9561 14.57979799800716"}}, "geometry": {"type": "Point", "coordinates": [-49.918563719257854, 11.934638358758539]}}]}